GLOBALSTAR M097 [+]     
1 39072U 13005A   17345.60483592 -.00000092  00000-0  63503-4 0  9990
2 39072  52.0059 349.2517 0000486   0.9865 359.1003 12.62264056224284
